{"type": "FeatureCollection", "features": [ {"type": "Feature", "properties": {"norad_id": 43010, "name": "FENGYUN 3D", "group": "weather", "lat": 14.436521666627486, "lon": -40.414193245794294, "alt_km": 828.0170180791292, "timestamp": "2025-12-21T11:31:42.483355+00:00", "meta": {"OBJECT_NAME": "FENGYUN 3D", "OBJECT_ID": "2017-072A", "EPOCH": "2025-12-21T04:41:38.232096", "MEAN_MOTION": 14.19686333, "ECCENTRICITY": 0.0001361, "INCLINATION": 98.9898, "RA_OF_ASC_NODE": 321.6324, "ARG_OF_PERICENTER": 155.7507, "MEAN_ANOMALY": 204.3733, "EPHEMERIS_TYPE": 0, "CLASSIFICATION_TYPE": "U", "NORAD_CAT_ID": 43010, "ELEMENT_SET_NO": 999, "REV_AT_EPOCH": 41973, "BSTAR": 0.00011758, "MEAN_MOTION_DOT": 2.03e-06, "MEAN_MOTION_DDOT": 0}, "tle": {"line1": "1 43010U 17072A   25355.19558139  .00000203  00000+0  11758-3 0  9995", "line2": "2 43010  98.9898 321.6324 0001361 155.7507 204.3733 14.19686333419733"}}, "geometry": {"type": "Point", "coordinates": [-40.414193245794294, 14.436521666627486]}}, {"type": "Feature", "properties": {"norad_id": 43013, "name": "NOAA 20 (JPSS-1)", "group": "weather", "lat": 17.725339200891575, "lon": 114.5070562908875, "alt_km": 827.2428485334685, "timestamp": "2025-12-21T11:31:42.483366+00:00", "meta": {"OBJECT_NAME": "NOAA 20 (JPSS-1)", "OBJECT_ID": "2017-073A", "EPOCH": "2025-12-21T02:18:35.873856", "MEAN_MOTION": 14.19527744, "ECCENTRICITY": 0.0002126, "INCLINATION": 98.7611, "RA_OF_ASC_NODE": 291.3019, "ARG_OF_PERICENTER": 75.2476, "MEAN_ANOMALY": 284.8935, "EPHEMERIS_TYPE": 0, "CLASSIFICATION_TYPE": "U", "NORAD_CAT_ID": 43013, "ELEMENT_SET_NO": 999, "REV_AT_EPOCH": 41920, "BSTAR": 4.6206e-05, "MEAN_MOTION_DOT": 5.3e-07, "MEAN_MOTION_DDOT": 0}, "tle": {"line1": "1 43013U 17073A   25355.09624854  .00000053  00000+0  46206-4 0  9996", "line2": "2 43013  98.7611 291.3019 0002126  75.2476 284.8935 14.19527744419201"}}, "geometry": {"type": "Point", "coordinates": [114.5070562908875, 17.725339200891575]}}, {"type": "Feature", "properties": {"norad_id": 43226, "name": "GOES 17", "group": "weather", "lat": 0.47973046541154474, "lon": 173.67534985321498, "alt_km": 35790.248332025745, "timestamp": "2025-12-21T11:31:42.483379+00:00", "meta": {"OBJECT_NAME": "GOES 17", "OBJECT_ID": "2018-022A", "EPOCH": "2025-12-21T02:30:03.122784", "MEAN_MOTION": 1.00270536, "ECCENTRICITY": 0.0003096, "INCLINATION": 0.4779, "RA_OF_ASC_NODE": 89.1372, "ARG_OF_PERICENTER": 191.7505, "MEAN_ANOMALY": 117.0464, "EPHEMERIS_TYPE": 0, "CLASSIFICATION_TYPE": "U", "NORAD_CAT_ID": 43226, "ELEMENT_SET_NO": 999, "REV_AT_EPOCH": 2863, "BSTAR": 0, "MEAN_MOTION_DOT": -1.6e-06, "MEAN_MOTION_DDOT": 0}, "tle": {"line1": "1 43226U 18022A   25355.10420281 -.00000160  00000+0  00000+0 0  9994", "line2": "2 43226   0.4779  89.1372 0003096 191.7505 117.0464  1.00270536 28638"}}, "geometry": {"type": "Point", "coordinates": [173.67534985321498, 0.47973046541154474]}}, {"type": "Feature", "properties": {"norad_id": 43491, "name": "FENGYUN 2H", "group": "weather", "lat": -2.5538101729876073, "lon": -17.409759374969806, "alt_km": 35787.52466453606, "timestamp": "2025-12-21T11:31:42.483401+00:00", "meta": {"OBJECT_NAME": "FENGYUN 2H", "OBJECT_ID": "2018-050A", "EPOCH": "2025-12-21T01:35:30.848928", "MEAN_MOTION": 1.00271172, "ECCENTRICITY": 0.0002365, "INCLINATION": 2.5713, "RA_OF_ASC_NODE": 81.2426, "ARG_OF_PERICENTER": 165.815, "MEAN_ANOMALY": 306.0626, "EPHEMERIS_TYPE": 0, "CLASSIFICATION_TYPE": "U", "NORAD_CAT_ID": 43491, "ELEMENT_SET_NO": 999, "REV_AT_EPOCH": 2765, "BSTAR": 0, "MEAN_MOTION_DOT": -1.09e-06, "MEAN_MOTION_DDOT": 0}, "tle": {"line1": "1 43491U 18050A   25355.06632927 -.00000109  00000+0  00000+0 0  9999", "line2": "2 43491   2.5713  81.2426 0002365 165.8150 306.0626  1.00271172 27650"}}, "geometry": {"type": "Point", "coordinates": [-17.409759374969806, -2.5538101729876073]}}, {"type": "Feature", "properties": {"norad_id": 43689, "name": "METOP-C", "group": "weather", "lat": 4.281836553864236, "lon": 52.45926728757782, "alt_km": 822.0976807430561, "timestamp": "2025-12-21T11:31:42.483413+00:00", "meta": {"OBJECT_NAME": "METOP-C", "OBJECT_ID": "2018-087A", "EPOCH": "2025-12-21T04:45:03.045888", "MEAN_MOTION": 14.21487373, "ECCENTRICITY": 8.39e-05, "INCLINATION": 98.6917, "RA_OF_ASC_NODE": 52.8375, "ARG_OF_PERICENTER": 24.4579, "MEAN_ANOMALY": 335.6638, "EPHEMERIS_TYPE": 0, "CLASSIFICATION_TYPE": "U", "NORAD_CAT_ID": 43689, "ELEMENT_SET_NO": 999, "REV_AT_EPOCH": 36954, "BSTAR": 6.6832e-05, "MEAN_MOTION_DOT": 1.03e-06, "MEAN_MOTION_DDOT": 0}, "tle": {"line1": "1 43689U 18087A   25355.19795192  .00000103  00000+0  66832-4 0  9999", "line2": "2 43689  98.6917  52.8375 0000839  24.4579 335.6638 14.21487373369544"}}, "geometry": {"type": "Point", "coordinates": [52.45926728757782, 4.281836553864236]}}, {"type": "Feature", "properties": {"norad_id": 43823, "name": "GEO-KOMPSAT-2A", "group": "weather", "lat": -0.0261523764811329, "lon": 31.482465784552037, "alt_km": 35785.80258578973, "timestamp": "2025-12-21T11:31:42.483425+00:00", "meta": {"OBJECT_NAME": "GEO-KOMPSAT-2A", "OBJECT_ID": "2018-100A", "EPOCH": "2025-12-21T00:06:46.848096", "MEAN_MOTION": 1.00270971, "ECCENTRICITY": 4.15e-05, "INCLINATION": 0.0521, "RA_OF_ASC_NODE": 137.0554, "ARG_OF_PERICENTER": 325.2122, "MEAN_ANOMALY": 117.5286, "EPHEMERIS_TYPE": 0, "CLASSIFICATION_TYPE": "U", "NORAD_CAT_ID": 43823, "ELEMENT_SET_NO": 999, "REV_AT_EPOCH": 2584, "BSTAR": 0, "MEAN_MOTION_DOT": -3.2e-06, "MEAN_MOTION_DDOT": 0}, "tle": {"line1": "1 43823U 18100A   25355.00470889 -.00000320  00000+0  00000+0 0  9990", "line2": "2 43823   0.0521 137.0554 0000415 325.2122 117.5286  1.00270971 25848"}}, "geometry": {"type": "Point", "coordinates": [31.482465784552037, -0.0261523764811329]}}, {"type": "Feature", "properties": {"norad_id": 44387, "name": "METEOR-M2 2", "group": "weather", "lat": 12.81356561085833, "lon": 157.3578197194019, "alt_km": 811.0298467154716, "timestamp": "2025-12-21T11:31:42.483436+00:00", "meta": {"OBJECT_NAME": "METEOR-M2 2", "OBJECT_ID": "2019-038A", "EPOCH": "2025-12-21T05:41:21.998688", "MEAN_MOTION": 14.24294795, "ECCENTRICITY": 0.0001638, "INCLINATION": 98.8972, "RA_OF_ASC_NODE": 335.0698, "ARG_OF_PERICENTER": 130.4971, "MEAN_ANOMALY": 229.635, "EPHEMERIS_TYPE": 0, "CLASSIFICATION_TYPE": "U", "NORAD_CAT_ID": 44387, "ELEMENT_SET_NO": 999, "REV_AT_EPOCH": 33596, "BSTAR": 7.3275e-05, "MEAN_MOTION_DOT": 1.23e-06, "MEAN_MOTION_DDOT": 0}, "tle": {"line1": "1 44387U 19038A   25355.23706017  .00000123  00000+0  73275-4 0  9996", "line2": "2 44387  98.8972 335.0698 0001638 130.4971 229.6350 14.24294795335968"}}, "geometry": {"type": "Point", "coordinates": [157.3578197194019, 12.81356561085833]}}, {"type": "Feature", "properties": {"norad_id": 47719, "name": "ARKTIKA-M 1", "group": "weather", "lat": 29.15691389356056, "lon": -113.5168294432919, "alt_km": 14370.428074395466, "timestamp": "2025-12-21T11:31:42.483448+00:00", "meta": {"OBJECT_NAME": "ARKTIKA-M 1", "OBJECT_ID": "2021-016A", "EPOCH": "2025-12-21T01:10:59.170944", "MEAN_MOTION": 2.00630317, "ECCENTRICITY": 0.7208476, "INCLINATION": 63.1763, "RA_OF_ASC_NODE": 82.8606, "ARG_OF_PERICENTER": 269.1559, "MEAN_ANOMALY": 15.5506, "EPHEMERIS_TYPE": 0, "CLASSIFICATION_TYPE": "U", "NORAD_CAT_ID": 47719, "ELEMENT_SET_NO": 999, "REV_AT_EPOCH": 3521, "BSTAR": 0, "MEAN_MOTION_DOT": -1e-06, "MEAN_MOTION_DDOT": 0}, "tle": {"line1": "1 47719U 21016A   25355.04929596 -.00000100  00000+0  00000+0 0  9992", "line2": "2 47719  63.1763  82.8606 7208476 269.1559  15.5506  2.00630317 35212"}}, "geometry": {"type": "Point", "coordinates": [-113.5168294432919, 29.15691389356056]}}, {"type": "Feature", "properties": {"norad_id": 49008, "name": "FENGYUN 3E", "group": "weather", "lat": -12.558307161787617, "lon": -2.1367676605616035, "alt_km": 830.5950461023012, "timestamp": "2025-12-21T11:31:42.483460+00:00", "meta": {"OBJECT_NAME": "FENGYUN 3E", "OBJECT_ID": "2021-062A", "EPOCH": "2025-12-21T04:49:23.698272", "MEAN_MOTION": 14.19882144, "ECCENTRICITY": 7.84e-05, "INCLINATION": 98.7469, "RA_OF_ASC_NODE": 355.6218, "ARG_OF_PERICENTER": 205.6187, "MEAN_ANOMALY": 154.4951, "EPHEMERIS_TYPE": 0, "CLASSIFICATION_TYPE": "U", "NORAD_CAT_ID": 49008, "ELEMENT_SET_NO": 999, "REV_AT_EPOCH": 23132, "BSTAR": 0.00019144, "MEAN_MOTION_DOT": 3.62e-06, "MEAN_MOTION_DDOT": 0}, "tle": {"line1": "1 49008U 21062A   25355.20096873  .00000362  00000+0  19144-3 0  9999", "line2": "2 49008  98.7469 355.6218 0000784 205.6187 154.4951 14.19882144231326"}}, "geometry": {"type": "Point", "coordinates": [-2.1367676605616035, -12.558307161787617]}}, {"type": "Feature", "properties": {"norad_id": 51850, "name": "GOES 18", "group": "weather", "lat": -0.005498046945905301, "lon": 126.22528718417274, "alt_km": 35787.13371236684, "timestamp": "2025-12-21T11:31:42.483474+00:00", "meta": {"OBJECT_NAME": "GOES 18", "OBJECT_ID": "2022-021A", "EPOCH": "2025-12-21T02:16:26.927040", "MEAN_MOTION": 1.00272026, "ECCENTRICITY": 2.75e-05, "INCLINATION": 0.0204, "RA_OF_ASC_NODE": 181.2197, "ARG_OF_PERICENTER": 118.9734, "MEAN_ANOMALY": 46.8456, "EPHEMERIS_TYPE": 0, "CLASSIFICATION_TYPE": "U", "NORAD_CAT_ID": 51850, "ELEMENT_SET_NO": 999, "REV_AT_EPOCH": 480, "BSTAR": 0, "MEAN_MOTION_DOT": 1.2e-06, "MEAN_MOTION_DDOT": 0}, "tle": {"line1": "1 51850U 22021A   25355.09475610  .00000120  00000+0  00000+0 0  9999", "line2": "2 51850   0.0204 181.2197 0000275 118.9734  46.8456  1.00272026  4808"}}, "geometry": {"type": "Point", "coordinates": [126.22528718417274, -0.005498046945905301]}}]}